[{"OBJECT_NAME":"SNUGLITE-III","OBJECT_ID":"2025-274M","EPOCH":"2026-03-09T18:38:00.597984","MEAN_MOTION":14.93615044,"ECCENTRICITY":0.00147171,"INCLINATION":97.744,"RA_OF_ASC_NODE":359.6505,"ARG_OF_PERICENTER":357.0951,"MEAN_ANOMALY":3.0181,"EPHEMERIS_TYPE":0,"CLASSIFICATION_TYPE":"U","NORAD_CAT_ID":66661,"ELEMENT_SET_NO":999,"REV_AT_EPOCH":1539,"BSTAR":0.00024849196,"MEAN_MOTION_DOT":2.571e-5,"MEAN_MOTION_DDOT":0},{"OBJECT_NAME":"SL-14 R\/B","OBJECT_ID":"1977-055B","EPOCH":"2026-03-09T12:09:50.153472","MEAN_MOTION":14.92006976,"ECCENTRICITY":0.00409775,"INCLINATION":75.8306,"RA_OF_ASC_NODE":90.7175,"ARG_OF_PERICENTER":356.0217,"MEAN_ANOMALY":4.0643,"EPHEMERIS_TYPE":0,"CLASSIFICATION_TYPE":"U","NORAD_CAT_ID":10096,"ELEMENT_SET_NO":999,"REV_AT_EPOCH":63654,"BSTAR":8.4112642e-5,"MEAN_MOTION_DOT":8.45e-6,"MEAN_MOTION_DDOT":0}]
